*******************************************************************************
JPL/HORIZONS               1349 Bechuana (1934 LJ)         2023-Sep-04 11:11:38
Rec #:    1349 (+COV) Soln.date: 2023-Aug-21_23:37:00   # obs: 9792 (1934-2023)
 
IAU76/J2000 helio. ecliptic osc. elements (au, days, deg., period=Julian yrs):
 
  EPOCH=  2457163.5 ! 2015-May-21.00 (TDB)         Residual RMS= .25792
   EC= .1573953694183005   QR= 2.537227748660982   TP= 2456217.0293724625
   OM= 307.1950062940279   W=  305.7719400002352   IN= 10.06047474131224
   A= 3.011172329909206    MA= 178.528599540559    ADIST= 3.48511691115743
   PER= 5.2253             N= .18862561            ANGMOM= .029478273
   DAN= 2.68915            DDN= 3.23414            L= 253.3890473
   B= -8.148126100000001   MOID= 1.53819001        TP= 2012-Oct-16.5293724625
 
Asteroid physical parameters (km, seconds, rotational period in hours):
   GM= n.a.                RAD= 12.1245            ROTPER= 15.692
   H= 10.59                G= .150                 B-V= n.a.
                           ALBEDO= .150            STYP= n.a.

ASTEROID comments: 
1: soln ref.= JPL#66, OCC=0
2: source=ORB
*******************************************************************************


*******************************************************************************
Ephemeris / API_USER Mon Sep  4 11:11:38 2023 Pasadena, USA      / Horizons
*******************************************************************************
Target body name: 1349 Bechuana (1934 LJ)         {source: JPL#66}
Center body name: Solar System Barycenter (0)     {source: DE441}
Center-site name: BODY CENTER
*******************************************************************************
Start time      : A.D. 2023-Aug-12 00:00:00.0000 TDB
Stop  time      : A.D. 2023-Aug-13 00:00:00.0000 TDB
Step-size       : 2880 minutes
*******************************************************************************
Center geodetic : 0.0, 0.0, 0.0                   {E-lon(deg),Lat(deg),Alt(km)}
Center cylindric: 0.0, 0.0, 0.0                   {E-lon(deg),Dxy(km),Dz(km)}
Center radii    : (undefined)
Small perturbers: Yes                             {source: SB441-N16}
Output units    : KM-S
Calendar mode   : Mixed Julian/Gregorian
Output type     : GEOMETRIC cartesian states
Output format   : 2 (position and velocity)
Reference frame : Ecliptic of J2000.0
*******************************************************************************
Initial IAU76/J2000 heliocentric ecliptic osculating elements (au, days, deg.):
  EPOCH=  2457163.5 ! 2015-May-21.00 (TDB)         Residual RMS= .25792        
   EC= .1573953694183005   QR= 2.537227748660982   TP= 2456217.0293724625      
   OM= 307.1950062940279   W=  305.7719400002352   IN= 10.06047474131224       
  Equivalent ICRF heliocentric cartesian coordinates (au, au/d):
   X= 1.048637765255810E+00  Y= 2.815333197571214E+00  Z= 1.766206255260691E+00
  VX=-7.971268257113943E-03 VY= 2.813044994991042E-03 VZ= 3.077526046332769E-04
Asteroid physical parameters (km, seconds, rotational period in hours):        
   GM= n.a.                RAD= 12.1245            ROTPER= 15.692              
   H= 10.59                G= .150                 B-V= n.a.                   
                           ALBEDO= .150            STYP= n.a.                  
*******************************************************************************
JDTDB
   X     Y     Z
   VX    VY    VZ
*******************************************************************************
$$SOE
2460168.500000000 = A.D. 2023-Aug-12 00:00:00.0000 TDB 
 X = 1.116883866523778E+08 Y =-3.727952745971508E+08 Z =-2.378286722044609E+07
 VX= 1.899628339701528E+01 VY= 3.971761022038661E+00 VZ= 3.111367613817908E+00
$$EOE
*******************************************************************************
 
TIME

  Barycentric Dynamical Time ("TDB" or T_eph) output was requested. This
continuous coordinate time is equivalent to the relativistic proper time
of a clock at rest in a reference frame co-moving with the solar system
barycenter but outside the system's gravity well. It is the independent
variable in the solar system relativistic equations of motion.

  TDB runs at a uniform rate of one SI second per second and is independent
of irregularities in Earth's rotation.
 
CALENDAR SYSTEM

  Mixed calendar mode was active such that calendar dates after AD 1582-Oct-15
(if any) are in the modern Gregorian system. Dates prior to 1582-Oct-5 (if any)
are in the Julian calendar system, which is automatically extended for dates
prior to its adoption on 45-Jan-1 BC.  The Julian calendar is useful for
matching historical dates. The Gregorian calendar more accurately corresponds
to the Earth's orbital motion and seasons. A "Gregorian-only" calendar mode is
available if such physical events are the primary interest.

REFERENCE FRAME AND COORDINATES

  Ecliptic at the standard reference epoch

    Reference epoch: J2000.0
    X-Y plane: adopted Earth orbital plane at the reference epoch
               Note: IAU76 obliquity of 84381.448 arcseconds wrt ICRF X-Y plane
    X-axis   : ICRF
    Z-axis   : perpendicular to the X-Y plane in the directional (+ or -) sense
               of Earth's north pole at the reference epoch.

  Symbol meaning:

    JDTDB    Julian Day Number, Barycentric Dynamical Time
      X      X-component of position vector (km)
      Y      Y-component of position vector (km)
      Z      Z-component of position vector (km)
      VX     X-component of velocity vector (km/sec)                           
      VY     Y-component of velocity vector (km/sec)                           
      VZ     Z-component of velocity vector (km/sec)                           

ABERRATIONS AND CORRECTIONS

 Geometric state vectors have NO corrections or aberrations applied.

Computations by ...

    Solar System Dynamics Group, Horizons On-Line Ephemeris System
    4800 Oak Grove Drive, Jet Propulsion Laboratory
    Pasadena, CA  91109   USA

    General site: https://ssd.jpl.nasa.gov/
    Mailing list: https://ssd.jpl.nasa.gov/email_list.html
    System news : https://ssd.jpl.nasa.gov/horizons/news.html
    User Guide  : https://ssd.jpl.nasa.gov/horizons/manual.html
    Connect     : browser        https://ssd.jpl.nasa.gov/horizons/app.html#/x
                  API            https://ssd-api.jpl.nasa.gov/doc/horizons.html
                  command-line   telnet ssd.jpl.nasa.gov 6775
                  e-mail/batch   https://ssd.jpl.nasa.gov/ftp/ssd/hrzn_batch.txt
                  scripts        https://ssd.jpl.nasa.gov/ftp/ssd/SCRIPTS
    Author      : Jon.D.Giorgini@jpl.nasa.gov
*******************************************************************************
